GLOBALSTAR M094         
1 39074U 13005C   25088.35919793 -.00000105  00000+0 -49925-5 0  9992
2 39074  51.9958  65.1659 0000681  85.1686 274.9258 12.62269410562297
GLOBALSTAR M096         
1 39075U 13005D   25088.37246219 -.00000075  00000+0  16124-3 0  9999
2 39075  52.0053 113.5805 0000594  89.2492 270.8443 12.62269934561213
GLOBALSTAR M078         
1 39076U 13005E   25088.26634359 -.00000194  00000+0 -50168-3 0  9993
2 39076  51.9871 198.5192 0000918  41.9284 318.1652 12.62259275559825
GLOBALSTAR M095         
1 39077U 13005F   25088.29308273 -.00000086  00000+0  98454-4 0  9990
2 39077  51.9790 195.6762 0000929  79.7793 280.3178 12.62268242559684
GLOBALSTAR M087         
1 52888U 22064A   25088.87802399 -.00000070  00000+0  18984-3 0  9994
2 52888  51.9813 335.3002 0000845  75.5221 284.5739 12.62270041135355
